[
    {
        "Altitude(m)": 604221.1976979843,
        "Argument of Periapsis(deg)": 0.0,
        "Eccentricity": 0.0,
        "Inclination(deg)": 60.0,
        "Latitude(deg)": 14.11720804988291,
        "Longitude(deg)": -36.665870396871064,
        "Mean Anomaly(deg)": 16.363599999999998,
        "RAAN(deg)": 55.00000000000001,
        "Satellite Name": "Test1 243",
        "Satellite Number": 243,
        "Semi-Major Axis(m)": 6980739.136638005,
        "Time(s)": 0
    },
    {
        "Altitude(m)": 604235.3384705605,
        "Argument of Periapsis(deg)": 0.00010418945913296404,
        "Eccentricity": 0.0,
        "Inclination(deg)": 60.0,
        "Latitude(deg)": 14.651605306216464,
        "Longitude(deg)": -36.37742445791337,
        "Mean Anomaly(deg)": 16.983706145461838,
        "RAAN(deg)": 54.999579950860266,
        "Satellite Name": "Test1 243",
        "Satellite Number": 243,
        "Semi-Major Axis(m)": 6980739.136638005,
        "Time(s)": 10
    }
]